[{"OBJECT_NAME":"EXPRESS-MD2","OBJECT_ID":"2012-044B","EPOCH":"2026-03-09T21:41:06.150624","MEAN_MOTION":12.36605018,"ECCENTRICITY":0.15990987,"INCLINATION":49.8419,"RA_OF_ASC_NODE":23.8539,"ARG_OF_PERICENTER":264.6071,"MEAN_ANOMALY":77.1068,"EPHEMERIS_TYPE":0,"CLASSIFICATION_TYPE":"U","NORAD_CAT_ID":38745,"ELEMENT_SET_NO":999,"REV_AT_EPOCH":54849,"BSTAR":0.00055780914,"MEAN_MOTION_DOT":0.00031331,"MEAN_MOTION_DDOT":4.210112e-6},{"OBJECT_NAME":"STARLINK-36266","OBJECT_ID":"2026-038Z","EPOCH":"2026-03-09T22:00:01.999584","MEAN_MOTION":15.90124308,"ECCENTRICITY":0.00012289,"INCLINATION":97.2677,"RA_OF_ASC_NODE":79.2474,"ARG_OF_PERICENTER":82.0764,"MEAN_ANOMALY":271.4174,"EPHEMERIS_TYPE":0,"CLASSIFICATION_TYPE":"U","NORAD_CAT_ID":67984,"ELEMENT_SET_NO":999,"REV_AT_EPOCH":320,"BSTAR":-0.0056681052,"MEAN_MOTION_DOT":-0.01683306,"MEAN_MOTION_DDOT":0.00077537614}]
